STARLINK-1434           
1 45712U 20035BH  26068.24137979  .00054112  00000+0  20295-2 0  9995
2 45712  53.0547  22.1128 0005343  88.0400 272.1210 15.26724568319325
STARLINK-32384          
1 62146U 24224H   26068.26429507  .00032344  00000+0  11798-2 0  9993
2 62146  42.9979 160.6213 0001056 249.8965 110.1773 15.27577303 72419
